{
  "norad_id": 58364,
  "name": "STARLINK-30904",
  "history": [
    {
      "epoch": "2026-03-28T17:01:56.009856Z",
      "apogee_km": 552.4304255041525,
      "perigee_km": 545.219458122725,
      "latitude_deg": -4.693529200298941e-05,
      "longitude_deg": 164.34485106576668,
      "height_km": 547.0565651820767,
      "semi_major_axis_km": 6926.961941813439,
      "eccentricity": 0.0005205,
      "inclination_deg": 42.9987,
      "raan_deg": 245.9545,
      "arg_perigee_deg": 295.4485,
      "mean_anomaly_deg": 64.5819,
      "mean_motion_rev_day": 15.05873739
    },
    {
      "epoch": "2026-03-30T02:27:40.408992Z",
      "apogee_km": 552.2137025629227,
      "perigee_km": 544.669273273882,
      "latitude_deg": -6.912929044694463e-06,
      "longitude_deg": 13.928817628097292,
      "height_km": 546.0932428181345,
      "semi_major_axis_km": 6926.578487918402,
      "eccentricity": 0.0005446,
      "inclination_deg": 43.0002,
      "raan_deg": 238.3463,
      "arg_perigee_deg": 304.3654,
      "mean_anomaly_deg": 55.6674,
      "mean_motion_rev_day": 15.05998788
    }
  ]
}